branch_national_short_address,building_number,street,district,city,postal_code,latitude,longitude
OMDA7186,7186.0,سلمان بن عبدالعزيز,حي نواره,المزاحمية,19655.0,24.45930088,46.29706185
RMFB2777,2777.0,طريق رياض الخرج,حي المصفاة,الرياض,14571.0,24.45378386,46.98731005
RKDB4083,4083.0,ضرية,حي ديراب,الرياض,14969.0,24.50423990,46.63242870
RKAA4158,4158.0,نجم الدين الايوبي الفرعي,حي العوالي,الرياض,14924.0,24.55279982,46.63489713
RNSA9369,9369.0,محمد أبي نقطة,المدينة الصناعية الثانية,الرياض,14334.0,24.55891985,46.89328559
RKQA3601,3601.0,نجم الدين الايوبي,حي طويق,الرياض,14931.0,24.55431896,46.51235312
RIZA6695,6695.0,حمزة بن عبدالمطلب,حي الزهرة,الرياض,12987.0,24.56743836,46.64087420
RKNA4104,4104.0,ديراب الفرعي,حي نمار,الرياض,14963.0,24.56079845,46.67646161
RKNA2587,2587.0,الدائري الجنوبي الفرعي,حي نمار,الرياض,14962.0,24.57473196,46.67753019
RLFA2589,2589.0,ديراب الفرعي,حي الشفا,الرياض,14712.0,24.57837781,46.70176382
RMAA3261,3261.0,ابن يعقوب,حي العزيزية,الرياض,14515.0,24.58606631,46.75909922
RBSA2257,2257.0,السويدي العام,حي السويدي,الرياض,12791.0,24.59866316,46.69264820
RBSA2257,2257.0,السويدي العام,حي السويدي,الرياض,12791.0,24.59866316,46.69264820
RBSB2711,2711.0,السويدي العام,حي السويدي,الرياض,12791.0,24.60047488,46.69782428
RBSC3313,3313.0,السويدي العام,حي السويدي,الرياض,12791.0,24.60199901,46.70287978
RDLG3153,3153.0,الطائف,حي ظهرة لبن,الرياض,13784.0,24.63711708,46.53727600
RBMA6800,6800.0,التخصصي,حي المعذر,الرياض,12714.0,24.66376933,46.68271128
REQB8057,8057.0,عبدالله بن يحنس,حي الفاروق,الرياض,12863.0,24.65893635,46.78310926
RCRA2499,2499.0,زرقاء اليمامة,حي المربع,الرياض,12628.0,24.65716621,46.71274173
RYIA8092,8092.0,امارة عرقة,عرقة,الرياض,12543.0,24.68621702,46.58263103
RIHA8400,8400.0,عبدالله ابن حذافة السهمي,حي الهدا,الرياض,12913.0,24.66602348,46.62340657
RERA3838,3838.0,صلاح الدين الايوبي الفرعي,حي الربوة,الرياض,12839.0,24.67837179,46.77239085
RYSB3293,3293.0,عبدالله ابن حذافة السهمي,حي السفارات,الرياض,12512.0,24.68542441,46.62554343
RHSA2378,2378.0,مكه المكرمه,حي السليمانية,الرياض,12231.0,24.68947668,46.70262811
RHOA3140,3140.0,الامير سلطان ابن عبدالعزيز,حي العليا,الرياض,12222.0,24.69340182,46.69504535
RERA7454,7454.0,الدائري الشرقي الفرعي,حي الربوة,الرياض,12839.0,24.68571832,46.77513864
RGUA4207,4207.0,العروبة الفرعي,حي ام الحمام الغربي,الرياض,12326.0,24.70251152,46.65161110
RHOA6960,6960.0,وادي الصمان,حي العليا,الرياض,12211.0,24.68748667,46.68693717
RHSC3832,3832.0,الامير سلطان ابن عبدالعزيز,حي السليمانية,الرياض,12223.0,24.69742121,46.70226635
RERA5031,5031.0,عبدالرحمن الفرضي,حي الربوة,الرياض,12816.0,24.68872258,46.75305058
RERB4004,4004.0,عمر بن عبدالعزيز الفرعي,حي الربوة,الرياض,12824.0,24.69258019,46.76482553
RQAA8416,8416.0,شبه الجزيره,حي السعادة,الرياض,14255.0,24.69934653,46.83642055
RHOC7906,7906.0,الملك فهد الفرعي,حي العليا,الرياض,12313.0,24.69196346,46.68141013
RHSA3245,3245.0,الأمير محمد بن عبدالعزيز,حي السليمانية,الرياض,12223.0,24.70116434,46.69617566
RHSA3826,3826.0,,حي السليمانية,الرياض,12233.0,24.69278255,46.71702266
RQWA9255,9255.0,الواحة,حي الروابي,الرياض,14214.0,24.70878420,46.79324807
RGSA3283,3283.0,الشيخ حسن بن عبدالله ال الشيخ,جامعة الملك سعود,الرياض,12372.0,24.72906117,46.62361724
RHWA2435,2435.0,الملك عبدالله ابن عبدالعزيز سعود الفرعي,حي الورود,الرياض,12253.0,24.73031919,46.67154009
RHOB7777,7777.0,العليا,حي العليا,الرياض,12244.0,24.71259043,46.67629884
RHSB8182,8182.0,طريق الملك عبدالعزيز الفرعي,حي السليمانية,الرياض,12245.0,24.71605640,46.69563645
RFRC3980,3980.0,خريص الفرعي,حي الروضة,الرياض,13211.0,24.72432904,46.77485422
RQRA3355,3355.0,خريص الفرعي,حي الريان,الرياض,14212.0,24.72218852,46.77531919
RQMA2145,2145.0,خريص الفرعي,حي المنار,الرياض,14221.0,24.72779983,46.78480172
RGNA3317,3317.0,الدائرى الشمالى الفرعي,حي النخيل,الرياض,12394.0,24.74182809,46.60347365
RGNC7420,7420.0,سالم بن معقل,حي النخيل,الرياض,12393.0,24.73661696,46.60942002
RGSA9036,9036.0,الأمير تركي بن عبدالعزيز الأول,جامعة الملك سعود,الرياض,12373.0,24.73745679,46.62982068
RGSA8838,8838.0,,جامعة الملك سعود,الرياض,12373.0,24.73561409,46.63107078
RGSA8596,8596.0,الأمير تركي بن عبدالعزيز الأول,جامعة الملك سعود,الرياض,12371.0,24.72720412,46.63632064
RHFC7252,7252.0,طريق الملك عبدالعزيز الفرعي,حي الملك فهد,الرياض,12272.0,24.74017102,46.68207987
RHDB7467,7467.0,طريق الملك عبدالعزيز الفرعي,حي الملك سلمان,الرياض,12434.0,24.73313438,46.68769161
RHKA3091,3091.0,خزام,حي الملك عبدالله,الرياض,12426.0,24.73421612,46.74315491
RFRA6841,6841.0,الدائري الشرقي الفرعي,حي الروضة,الرياض,13213.0,24.73477534,46.75221893
RGNB7300,7300.0,عبدالرحمن الرافعي,حي النخيل,الرياض,12381.0,24.74671975,46.65170874
RHFA7639,7639.0,وادي البطحاء,حي الملك فهد,الرياض,12262.0,24.74270582,46.65853343
RGNB7300,7300.0,عبدالرحمن الرافعي,حي النخيل,الرياض,12381.0,24.74671975,46.65170874
RHFA7544,7544.0,الملك عبدالعزيز ابن عبدالرحمن سعود,حي الملك فهد,الرياض,12272.0,24.74289356,46.68004958
RHHA7929,7929.0,ابي بكر الصديق الفرعي,حي الملك سلمان,الرياض,12444.0,24.73791166,46.70683058
RRHB4228,4228.0,الدائرى الشمالى الفرعي,حي حطين,الرياض,13512.0,24.75282413,46.62530969
RGSA9390,9390.0,الأمير تركي بن عبدالعزيز الأول,جامعة الملك سعود,الرياض,12373.0,24.74072498,46.62253013
RGNA4958,4958.0,سعود بن عبدالعزيز بن محمد الفرعي,حي النخيل,الرياض,12381.0,24.74107151,46.64625700
RHFA7639,7639.0,وادي البطحاء,حي الملك فهد,الرياض,12262.0,24.74270582,46.65853343
RHMA3055,3055.0,,حي المرسلات,الرياض,12464.0,24.75431882,46.68716265
RHMA2499,2499.0,سعود بن عبدالعزيز بن محمد الفرعي,حي المرسلات,الرياض,12463.0,24.75495521,46.68167921
RHRA4232,4232.0,الملك عبدالله ابن عبدالعزيز سعود الفرعي,حي المغرزات,الرياض,12482.0,24.75867833,46.73460081
RFQA7982,7982.0,المرباة,حي القدس,الرياض,13214.0,24.74929123,46.75529803
RSRA2915,2915.0,علي العريني,حي الرماية,الرياض,14611.0,24.75832257,46.85744728
RRHE7549,7549.0,طريق الملك خالد,حي حطين,الرياض,13518.0,24.76792402,46.57669904
RRHA7807,7807.0,طريق الملك خالد,حي حطين,الرياض,13514.0,24.75266730,46.58505310
RRHA6603,,,,,,Error,Error
RHNA7444,7444.0,طريق عثمان بن عفان,حي النزهة,الرياض,12472.0,24.75711629,46.71782623
RHKA2097,2097.0,الملك عبدالله ابن عبدالعزيز سعود الفرعي,حي الملك عبدالله,الرياض,12451.0,24.75177609,46.72222769
RFHA4558,4558.0,الملك عبدالله ابن عبدالعزيز سعود الفرعي,حي الحمراء,الرياض,13216.0,24.76711212,46.75577552
RFNB4326,4326.0,خريص الفرعي,حي النهضة,الرياض,13222.0,24.75783806,46.83026945
RRHA2337,,,,,,Error,Error
RRAB3350,3350.0,الامير محمد ابن سلمان ابن عبدالعزيز,حي العقيق,الرياض,13515.0,24.77240058,46.62578090
RRAA3015,3015.0,شارع المؤتمرات 1 ,حي العقيق,الرياض,13519.0,24.76083824,46.64016782
RAGA3623,3623.0,السيل الكبير,حي الغدير,الرياض,13311.0,24.77284163,46.65514327
RALA3292,3292.0,الطريق الدائري الشمالي الفرعي,حي النفل,الرياض,13312.0,24.77261579,46.67280866
RHYA2305,2305.0,الطريق الدائري الشمالي,حي المصيف,الرياض,12467.0,24.77049638,46.67144077
RHYB7120,7120.0,ابي بكر الصديق الفرعي,حي المصيف,الرياض,12466.0,24.76334330,46.69290461
RHRA3008,3008.0,الامير مقرن بن عبدالعزيز,حي المغرزات,الرياض,12483.0,24.76221907,46.72253240
RFFA3046,3046.0,بكر الباهلي,حي الملك فيصل,الرياض,13215.0,24.77141871,46.76948704
RFHA3890,3890.0,الملك عبدالله ابن عبدالعزيز سعود الفرعي,حي الحمراء,الرياض,13217.0,24.77148812,46.76707132
RFKA7771,7771.0,الشيخ سليمان بن عبدالله بن محمد,حي الخليج,الرياض,13223.0,24.77281161,46.79265469
RFNC3337,3337.0,الامير بندر بن عبدالعزيز,حي النهضة,الرياض,13222.0,24.77523681,46.82061317
RARA6409,6409.0,الملك عبدالعزيز ابن عبدالرحمن سعود,حي الربيع,الرياض,13316.0,24.78979307,46.65913028
RALA7463,7463.0,الملك عبدالعزيز ابن عبدالرحمن سعود الفرعي,حي النفل,الرياض,13312.0,24.78356713,46.66250158
RAWA7412,7412.0,عثمان بن عفان الفرعي,حي الوادي,الرياض,13313.0,24.78994294,46.70123225
RAWA4217,4217.0,غزة,حي الوادي,الرياض,13313.0,24.78401473,46.69997078
RFDA6623,6623.0,,حي الشهداء,الرياض,13241.0,24.78180077,46.73097299
RFDB3208,3208.0,عبدالله ابن سعود ابن عبدالعزيز الفرعي,حي الشهداء,الرياض,13241.0,24.77865522,46.73406461
RFBA3513,3513.0,على بن سعيد,حي اشبيلية,الرياض,13226.0,24.78590397,46.79902974
RFKE3313,3313.0,طريق الملك عبدالله بن عبدالعزيز,حي الخليج,الرياض,13224.0,24.79011436,46.80839894
RASB6656,6656.0,الثمامه,حي الصحافة,الرياض,13315.0,24.78328236,46.64461538
RARA7323,7323.0,طريق الملك عبدالعزيز,حي الربيع,الرياض,13316.0,24.79840867,46.65468615
RARA4180,4180.0,الامير محمد ابن سلمان ابن عبدالعزيز,حي الربيع,الرياض,13316.0,24.79264912,46.67335755
RRMB4162,4162.0,انس بن مالك,حي الملقا,الرياض,13524.0,24.80859574,46.61708015
RARC3769,3769.0,ابي بكر الصديق الفرعي,حي الربيع,الرياض,13316.0,24.80856284,46.66916715
RADB7000,7000.0,الامير سعود بن محمد بن مقرن,حي الندى,الرياض,13317.0,24.80283558,46.69476650
RADA7349,7349.0,أركان,حي الندى,الرياض,13317.0,24.80600947,46.69297740
RUQB2247,2247.0,طريق المطار,حي قرطبة,الرياض,13244.0,24.80826055,46.71667873
RUQA3210,3210.0,الدمام الفرعي,حي قرطبة,الرياض,13245.0,24.80228324,46.74365727
RUQB6783,6783.0,سعيد بن زيد,حي قرطبة,الرياض,13245.0,24.80723231,46.73739866
RFJA8055,8055.0, جابر الاحمد الصباح,حي القادسية,الرياض,13236.0,24.80546672,46.81240761
RAYH3742,3742.0,الثمامه,حي الياسمين,الرياض,13322.0,24.80702687,46.66063290
RASA4388,4388.0,الامير ناصر بن سعود بن فرحان ال سعود,حي الصحافة,الرياض,13321.0,24.81165250,46.64603617
RAYH3742,3742.0,الثمامه,حي الياسمين,الرياض,13322.0,24.80702687,46.66063290
RANA4754,4754.0,الثمامه,حي النرجس,الرياض,13323.0,24.81791431,46.68649443
RUQC3584,3584.0,الامير محمد ابن سلمان ابن عبدالعزيز,حي قرطبة,الرياض,13247.0,24.81593608,46.72885802
RFYA2073,2073.0,الدمام الفرعي,حي اليرموك,الرياض,13251.0,24.81485850,46.77672451
RUMA6073,6073.0, حسن ابن حسين ابن علي,حي المونسية,الرياض,13249.0,24.82490466,46.74995305
RFJC7289,7289.0, جابر الاحمد الصباح,حي القادسية,الرياض,13252.0,24.81812130,46.80321275
RRQA2912,2912.0,الامير سعود بن عبدالله بن جلوي,حي القيروان,الرياض,13535.0,24.82938159,46.57057974
RRMB2561,2561.0,الملك سلمان ابن عبدالعزيز سعود,حي الملقا,الرياض,13524.0,24.82066322,46.60167522
RAYD7461,7461.0,القادسية,حي الياسمين,الرياض,13326.0,24.83214228,46.64957250
RUKA7808,7808.0,شارع الملك الجنوبي,مطار الملك خالد,الرياض,13412.0,24.84673621,46.72563731
RTJA3046,3046.0,الشرق,حي الجنادرية,الرياض,13613.0,24.83302120,46.88341448
RRDC7373,7373.0,طريق الملك عبدالعزيز,حي العارض,الرياض,13332.0,24.84672874,46.63033380
RUKA7808,7808.0,شارع الملك الجنوبي,مطار الملك خالد,الرياض,13412.0,24.84673621,46.72563731
RUME3654,3654.0,طريق الثمامة,حي المونسية,الرياض,13421.0,24.84284362,46.75167098
RRNB6550,6550.0,الأمير محمد بن سعد بن عبدالعزيز,حي القيروان,الرياض,13542.0,24.85211795,46.57863093
RRDC7025,7025.0,الملك فهد,حي العارض,الرياض,13334.0,24.85133864,46.60284334
RAJA7915,7915.0,,حي النرجس,الرياض,13333.0,24.85872943,46.64671832
RANA2277,2277.0,طريق الملك سلمان بن عبدالعزيز,حي النرجس,الرياض,13328.0,24.85112952,46.67396093
RUMF3161,3161.0,طريق الثمامة,حي المونسية,الرياض,13249.0,24.84324174,46.75424658
RUMD4178,4178.0,الثمامه,حي المونسية,الرياض,13422.0,24.85347130,46.77169669
RUKA3529,3529.0,,مطار الملك خالد,الرياض,13442.0,24.88952818,46.69292734
RUKA4075,4075.0,المطار,مطار الملك خالد,الرياض,13443.0,24.92449848,46.71664987
RUKB7447,7447.0,طريق المطار,مطار الملك خالد,الرياض,13455.0,24.94234150,46.71190097
RUKB7447,7447.0,طريق المطار,مطار الملك خالد,الرياض,13455.0,24.94234150,46.71190097
RUKA6687,6687.0,المطار,مطار الملك خالد,الرياض,13458.0,24.95576501,46.70571903
RUKA6983,6983.0,المطار,مطار الملك خالد,الرياض,13458.0,24.95841288,46.70401450
RUKA7563,7563.0,المطار,مطار الملك خالد,الرياض,13458.0,24.96374116,46.70070569
RMHA3635,3635.0,ابي المعالي الطاهري,حي الحائر,الرياض,14581.0,24.40648686,46.84158636
RMHA9155,9155.0,الحائر,حي الحائر,الرياض,14581.0,24.41207425,46.83809669
OMDA4462,4462.0,سلمان بن عبدالعزيز,حي نواره,المزاحمية,19655.0,24.45958114,46.29739440
OMDA7415,7415.0,ابو سفيان بن حرب,حي نواره,المزاحمية,19655.0,24.46134358,46.29865639
RMFB2777,2777.0,طريق رياض الخرج,حي المصفاة,الرياض,14571.0,24.45378386,46.98731005
RKDD6608,6608.0,ديراب الفرعي,حي ديراب,الرياض,14969.0,24.49650946,46.62836020
RKDB4459,4459.0,عباس يوسف قطان,حي ديراب,الرياض,14969.0,24.50858522,46.63618056
RKDC7886,7886.0,ديراب الفرعي,حي ديراب,الرياض,14969.0,24.50787488,46.63578683
RLBA2558,2558.0,مسلم,حي بدر,الرياض,14743.0,24.51368715,46.72644262
RKQB3772,3772.0,جده,حي طويق,الرياض,13795.0,24.54435132,46.46721095
RKQB3772,3772.0,جده,حي طويق,الرياض,13795,Error,Error
RKHA3653,3653.0,المشتل,حي الحزم,الرياض,14964.0,24.54653640,46.64979989
RLKC7941,7941.0,ديراب الفرعي,حي عكاظ,الرياض,14723.0,24.53089960,46.65455261
RLBD3579,3579.0,مسلم الفرعى,حي بدر,الرياض,14725.0,24.53534235,46.69301067
RKHA4559,4559.0,المشتل,حي الحزم,الرياض,14964.0,24.54187558,46.65861280
RKHB4613,4613.0,المشتل,حي الحزم,الرياض,14964.0,24.54162894,46.65913841
RKQA2297,2297.0,جدة الفرعي,حي طويق,الرياض,14931.0,24.55644964,46.49989827
RKWC2338,2338.0,نجم الدين الايوبي,حي طويق,الرياض,14927.0,24.55405995,46.55730613
RKWA3732,3732.0,نجم الدين الايوبي,حي طويق,الرياض,14927.0,24.55284897,46.57108817
RLDG7733,7733.0,ابن تيمية,حي بدر,الرياض,14716.0,24.55858306,46.70523804
RMDA7057,7057.0,الحائر الفرعي,حي الدار البيضاء,الرياض,14519.0,24.55247005,46.76377715
RNSA3260,3260.0,ميمانا,المدينة الصناعية الثانية,الرياض,14334.0,24.55165208,46.89057474
RKWF3008,3008.0,سليمان بن عبدالملك بن مروان,حي طويق,الرياض,14928.0,24.56783738,46.54444522
RBDB7388,7388.0,عائشة بنت ابي بكر,حي شبرا,الرياض,12988.0,24.57342412,46.66334947
RMDA7167,7167.0,العزيزية الفرعي,حي الدار البيضاء,الرياض,14517.0,24.56612734,46.79045274
RNSA8155,8155.0,الطريق الدائري الثاني,المدينة الصناعية الثانية,الرياض,14331.0,24.56042380,46.86554668
RNSA9777,9777.0,محمد أبي نقطة,المدينة الصناعية الثانية,الرياض,14334.0,24.56261465,46.89609915
RKWC8024,8024.0,الأمير عبدالرحمن بن سعود بن عبدالعزيز,حي طويق,الرياض,14928.0,24.57233429,46.55543022
RISA2237,2237.0,المدينه المنوره,حي السويدي الغربي,الرياض,12992.0,24.57777730,46.60735867
RISB7399,7399.0,عبدالوهاب بن يوسف,حي السويدي الغربي,الرياض,12993.0,24.57305411,46.63491906
RLFB2569,2569.0,ديراب الفرعي,حي الشفا,الرياض,14712.0,24.57824695,46.70157290
RIUC7406,7406.0,حمزة بن عبدالمطلب,حي العريجاء الغربي,الرياض,12976.0,24.58926481,46.62317487
RBBA6529,6529.0,حمزة بن عبدالمطلب,حي ظهرة البديعة,الرياض,12982.0,24.58524051,46.62716634
RMAD3485,3485.0,النصر,حي العزيزية,الرياض,14514.0,24.58697093,46.76131945
RMAC8282,8282.0,العزيزية الفرعي,حي العزيزية,الرياض,14514.0,24.58170646,46.78086887
RIUC4776,4776.0,المدينه المنوره,حي العريجاء الوسطى,الرياض,12768.0,24.60869563,46.65579270
RBSB5416,5416.0,السويدي العام,حي السويدي,الرياض,12786.0,24.59365825,46.67743664
RCMA7835,7835.0,البطحاء,حي المنصورة,الرياض,12684.0,24.60435038,46.73279043
RIUB7955,7955.0,يزيد بن ابي سفيان,حي العريجاء الوسطى,الرياض,12768.0,24.61815082,46.65285662
RILA5192,5192.0,الأمير أحمد بن عبدالعزيز,حي لبن,الرياض,12935.0,24.63416656,46.61852385
RDLA8988,8988.0,طيبة,حي ظهرة لبن,الرياض,13782.0,24.64461911,46.55388533
RDLB3243,3243.0,الطائف,حي ظهرة لبن,الرياض,13782.0,24.64836040,46.55656122
RBRA8581,8581.0,خريم بن فاتك,حي الرفيعة,الرياض,12752.0,24.64873837,46.65190321
RDLE3332,3332.0,بركة,حي ظهرة لبن,الرياض,12555.0,24.65412771,46.56971339
RBFA6545,6545.0,وادي الليسن,حي الشرفية,الرياض,12724.0,24.65415876,46.66921705
RBJB8377,8377.0,الأمير سعود بن فيصل بن عبدالعزيز,حي النموذجية,الرياض,12734.0,24.65510021,46.68822595
RCRA3536,3536.0,الملك فهد,حي المربع,الرياض,12613.0,24.65157717,46.70364832
RCRA3536,3536.0,الملك فهد,حي المربع,الرياض,12613.0,24.65157717,46.70364832
RCRA7289,7289.0,الملك فهد الفرعي,حي المربع,الرياض,12612.0,24.66193881,46.70123686
REMA6649,6649.0,الملك عبدالعزيز ابن عبدالرحمن سعود,حي الملز,الرياض,12629.0,24.65913899,46.71830345
RDMA4207,4207.0,السيل الكبير,حي المهدية,الرياض,13754.0,24.66627160,46.53457278
RIHA2523,2523.0,طريق مكة المكرمة,حي الهدا,الرياض,12913.0,24.66624839,46.62184876
RBMA2618,2618.0,الزهراوي,حي المعذر,الرياض,12713.0,24.66943978,46.67517657
RBMB6848,6848.0,الجوهرى,حي المعذر,الرياض,12714.0,24.66433804,46.67647528
RESA7705,7705.0,فاطمة الزهراء,حي الصفا,الرياض,12851.0,24.66953297,46.75222897
RQFA6173,6173.0,هارون الرشيد,حي الفيحاء,الرياض,14254.0,24.66948306,46.80606371
RYSA6633,6633.0,عبدالله ابن حذافة السهمي,حي السفارات,الرياض,12511.0,24.67331465,46.62325229
RGMA3356,3356.0,طريق مكة المكرمة,حي المعذر الشمالي,الرياض,12312.0,24.67620138,46.67661126
RBMA6878,6878.0,التخصصي,حي المعذر,الرياض,12714.0,24.66445273,46.68238577
REMA6895,6895.0,الملك عبدالعزيز ابن عبدالرحمن سعود,حي الملز,الرياض,12629.0,24.66138084,46.71845386
RCRB7501,7501.0,أسماء بنت مالك,حي المربع,الرياض,12624.0,24.67831776,46.70690171
REMA7647,7647.0,طلحة بن مالك,حي الملز,الرياض,12831.0,24.67568972,46.72761709
RQJA2991,2991.0,الامير سعد بن عبدالرحمن الفرعي,حي الجزيرة,الرياض,14251.0,24.68226995,46.78747049
RYIA2742,2742.0,الأمير مشعل بن عبد العزيز,عرقة,الرياض,12544.0,24.68527868,46.57299688
RYSA7320,7320.0,عمرو بن أمية الضمري,حي السفارات,الرياض,12512.0,24.67950420,46.62315105
RBMA2571,2571.0,مكة المكرمة,حي المعذر,الرياض,12713.0,24.67210667,46.67395842
RBMA4539,4539.0,مكة المكرمة الفرعي,حي المعذر,الرياض,12721.0,24.67416234,46.66829226
RHOA7428,7428.0,الملك فهد الفرعي,حي العليا,الرياض,12311.0,24.68761649,46.68359626
RHOC2900,2900.0,العليا الفرعي,حي العليا,الرياض,12611.0,24.67198761,46.69809064
RHSA3365,3365.0,أبي بكر الرازي,حي السليمانية,الرياض,12231.0,24.69005235,46.71241042
RERA4152,4152.0,عمر بن عبدالعزيز الفرعي,حي الربوة,الرياض,12815.0,24.68505183,46.74432483
REMB7801,7801.0,الاحساء,حي الملز,الرياض,12832.0,24.67696935,46.73721868
RQFC7637,7637.0, الشافعي,حي الفيحاء,الرياض,14253.0,24.68254737,46.81472791
RGUA2668,2668.0,الامير نواف بن عبدالعزيز,حي ام الحمام الغربي,الرياض,12329.0,24.68743444,46.63619524
RHOB2643,2643.0,الأمير محمد بن عبدالعزيز,حي العليا,الرياض,12222.0,24.69864133,46.69019607
RERB3165,3165.0,عمر بن عبدالعزيز الفرعي,حي الربوة,الرياض,12835.0,24.69132648,46.76591877
RERC3582,3582.0,عمر بن عبدالعزيز الفرعي,حي الربوة,الرياض,12823.0,24.69093771,46.76061744
RERA4444,4444.0,عمر بن عبدالعزيز الفرعي,حي الربوة,الرياض,12824.0,24.69383758,46.76913643
RQRA6913,6913.0,الدائري الشرقي الفرعي,حي الريان,الرياض,14213.0,24.70291072,46.77108742
RQWA4217,4217.0,الزبير ابن العوام ابن خويلد ابن اسد,حي الروابي,الرياض,14216.0,24.69695175,46.79541491
RQYB8112,8112.0,جاكرتا,حي السلي,الرياض,14267.0,24.68045799,46.85558618
RYIA4308,4308.0,أبي العباس الحربي,عرقة,الرياض,12532.0,24.69243380,46.60527786
RGDB3075,3075.0,الملك عبدالله ابن عبدالعزيز سعود الفرعي,حي الرائد,الرياض,12355.0,24.71354579,46.63384434
RGUA4207,4207.0,العروبة الفرعي,حي ام الحمام الغربي,الرياض,12326.0,24.70251152,46.65161110
RGRB3662,3662.0,العروبة الفرعي,حي الرحمانية,الرياض,12342.0,24.70855454,46.66225986
RHOA2794,2794.0,موسى بن نصير,حي العليا,الرياض,12244.0,24.70479714,46.68296473
RHOB2957,2957.0,الامير سلطان ابن عبدالعزيز,حي العليا,الرياض,12221.0,24.69171330,46.69326361
RHSC3634,3634.0,العيينة,حي السليمانية,الرياض,12223.0,24.70073273,46.69994379
RGDA7885,7885.0,عشيرة سدير,حي الرائد,الرياض,12355.0,24.71114977,46.63151536
RGSA4570,4570.0,الأمير تركي بن عبدالعزيز الأول,جامعة الملك سعود,الرياض,12371.0,24.72452895,46.63627078
RHWA7375,7375.0,الامير احمد بن عبدالعزيز,حي الورود,الرياض,12254.0,24.72584243,46.68150139
RQRA3355,3355.0,خريص الفرعي,حي الريان,الرياض,14212.0,24.72218852,46.77531919
RQRA5256,5256.0, احمد ابن حنبل,حي الريان,الرياض,14212.0,24.71265265,46.79407753
RQNA2071,2071.0, احمد ابن حنبل,حي النسيم الغربي,الرياض,14233.0,24.72519793,46.81607838
RQSA8136,8136.0,عبدالرحمن بن عوف,حي السلام,الرياض,14225.0,24.71199910,46.81856232
RDFA8475,8475.0,مصعب بن عمير,حي الفيصلية,الدرعية,13712.0,24.74718252,46.57052148
RGNA7903,7903.0,سالم بن معقل,حي النخيل,الرياض,12392.0,24.74095498,46.60796322
RGSA9390,9390.0,الأمير تركي بن عبدالعزيز الأول,جامعة الملك سعود,الرياض,12373.0,24.74072498,46.62253013
RGSA4366,4366.0,الأمير تركي بن عبدالعزيز الأول,جامعة الملك سعود,الرياض,12371.0,24.72814124,46.63432927
RHDB7467,7467.0,طريق الملك عبدالعزيز الفرعي,حي الملك سلمان,الرياض,12434.0,24.73313438,46.68769161
RHDB7467,7467.0,طريق الملك عبدالعزيز الفرعي,حي الملك سلمان,الرياض,12434.0,24.73313438,46.68769161
RHDB7837,,,,,,Error,Error
RHDA3741,3741.0,رفحاء,حي الملك سلمان,الرياض,12433.0,24.73266370,46.70246340
RFRA2251,2251.0,عبدالرحمن الغافقي,حي الروضة,الرياض,13213.0,24.74126966,46.75132111
RFRB7610,7610.0,المقريزي,حي الروضة,الرياض,13211.0,24.72878987,46.78292357
RQNC2701,2701.0,أحمد البديري,حي النسيم الغربي,الرياض,14231.0,24.73997538,46.81071406
RGNA3376,3376.0,الجموح,حي النخيل,الرياض,12394.0,24.74155692,46.60404714
RGNA5045,5045.0,الأمير تركي بن عبدالعزيز الأول,حي النخيل,الرياض,12391.0,24.74488667,46.62052924
RGNB7300,7300.0,عبدالرحمن الرافعي,حي النخيل,الرياض,12381.0,24.74671975,46.65170874
RHFA3494,3494.0,الملك عبدالله ابن عبدالعزيز سعود الفرعي,حي الملك فهد,الرياض,12271.0,24.73220122,46.67313449
RHMA7164,7164.0,ابي بكر الصديق الفرعي,حي المرسلات,الرياض,12462.0,24.74700968,46.70123607
RHHA2349,2349.0,الملك عبدالله ابن عبدالعزيز سعود الفرعي,حي الملك سلمان,الرياض,12444.0,24.74513870,46.70659043
RHRA3144,3144.0,الملك عبدالله ابن عبدالعزيز سعود الفرعي,حي المغرزات,الرياض,12481.0,24.75361302,46.72386422
RHKB7177,7177.0,الدائري الشرقي,حي الملك عبدالله,الرياض,12451.0,24.74105292,46.74535345
RFRA2581,2581.0,أبي الدرداء,حي الروضة,الرياض,13213.0,24.73150341,46.75449323
RFRA8114,8114.0,خالد بن الوليد,حي الروضة,الرياض,13211.0,24.73340130,46.78411430
RSRA2990,2990.0,السلامه,حي الرماية,الرياض,14611.0,24.74645473,46.85804179
RSRA2990,2990.0,السلامه,حي الرماية,الرياض,14611.0,24.74645473,46.85804179
RDDA2922,2922.0,الامير عبدالله ابن عبدالرحمن,حي ظهرة العودة شرق,الدرعية,13732.0,24.75379445,46.54155787
RRHC7894,7894.0,الأبناء,حي حطين,الرياض,13513.0,24.75320814,46.60990209
RGNA7917,7917.0,التخصصي,حي النخيل,الرياض,12383.0,24.75251264,46.63975831
RHGA9316,,,,,,Error,Error
RHGA6878,6878.0,المغيره بن شعبه,حي المروج,الرياض,12281.0,24.75373917,46.66376560
RHMA2729,2729.0,سعود بن عبدالعزيز بن محمد الفرعي,حي المرسلات,الرياض,12464.0,24.75589619,46.68393053
RHNA3896,3896.0,الامير مقرن بن عبدالعزيز,حي النزهة,الرياض,12474.0,24.75816541,46.71339952
RHNA3124,3124.0,الملك عبدالله ابن عبدالعزيز سعود الفرعي,حي النزهة,الرياض,12471.0,24.74587839,46.70551784
RHKA2446,2446.0,العلمين,حي الملك عبدالله,الرياض,12451.0,24.75101980,46.72556150
RHKA2446,2446.0,العلمين,حي الملك عبدالله,الرياض,12451.0,24.75101980,46.72556150
RFQA7790,7790.0,الأمير محمد بن فيصل بن تركي,حي القدس,الرياض,13214.0,24.75607653,46.76001054
RFFA4211,4211.0,الكندي,حي الملك فيصل,الرياض,13215.0,24.75707791,46.78100000
RSRA7244,7244.0,علي العريني,حي الرماية,الرياض,14611.0,24.75553375,46.85458474
RSRA2520,2520.0,علي العريني,حي الرماية,الرياض,14611.0,24.75107190,46.85279687
RRHE7549,7549.0,طريق الملك خالد,حي حطين,الرياض,13518.0,24.76792402,46.57669904
RRHB3841,3841.0,الامير فيصل بن عبدالله بن عبدالرحمن,حي حطين,الرياض,13517.0,24.76843605,46.59040544
RRAB3208,3208.0,البوليفارد المالي ,حي العقيق,الرياض,13519.0,24.76247342,46.64218821
RHRA3008,3008.0,الامير مقرن بن عبدالعزيز,حي المغرزات,الرياض,12483.0,24.76221907,46.72253240
RHRA3621,3621.0,,حي المغرزات,الرياض,12484.0,24.76919026,46.72865206
RFNB4326,4326.0,خريص الفرعي,حي النهضة,الرياض,13222.0,24.75783806,46.83026945
RFNA4495,4495.0,التقوى,حي النهضة,الرياض,13222.0,24.75932988,46.83215817
RRAA6953,6953.0,طريق الامير محمد بن سعد بن عبد العزيز,حي العقيق,الرياض,13511.0,24.76212620,46.62587572
RALA7139,7139.0,الملك عبدالعزيز ابن عبدالرحمن سعود الفرعي,حي النفل,الرياض,13312.0,24.78018900,46.66374123
RALA3292,3292.0,الطريق الدائري الشمالي الفرعي,حي النفل,الرياض,13312.0,24.77261579,46.67280866
RHZA2667,2667.0,الحسين بن علي,حي الازدهار,الرياض,12485.0,24.77818168,46.71108483
RHZA4238,4238.0,عبدالله ابن سعود ابن عبدالعزيز الفرعي,حي الازدهار,الرياض,12486.0,24.77493911,46.72651136
RDSA7852,7852.0,طريق الملك خالد الفرعي,حي السلمانية,الدرعية,13715.0,24.78468809,46.56717186
RASA6665,6665.0,طريق الملك فهد الفرعي,حي الصحافة,الرياض,13315.0,24.78343683,46.63689228
RALA7876,7876.0,ابي بكر الصديق الفرعي,حي النفل,الرياض,13312.0,24.78666786,46.68119355
RHYA3323,3323.0,الطريق الدائري الشمالي الفرعي,حي المصيف,الرياض,12468.0,24.77482333,46.68161688
RHZA7541,7541.0,طريق عثمان بن عفان الفرعي,حي الازدهار,الرياض,12487.0,24.78250356,46.70615854
RAWA7384,7384.0,عثمان بن عفان الفرعي,حي الوادي,الرياض,13313.0,24.78967126,46.70136990
RFBB7247,7247.0,بحر العرب,حي اشبيلية,الرياض,13226.0,24.79271171,46.80162478
RFBA3533,3533.0,على بن سعيد,حي اشبيلية,الرياض,13226.0,24.78601552,46.79923109
RRMB3767,3767.0,انس بن مالك,حي الملقا,الرياض,13522.0,24.80173318,46.60372271
RRMG7524,7524.0,طريق الملك فهد الفرعي,حي الملقا,الرياض,13521.0,24.79987843,46.62696668
RASB3141,3141.0, سعود ابن فيصل,حي الصحافة,الرياض,13315.0,24.79794045,46.64195118
RARB4376,4376.0,الامير محمد ابن سلمان ابن عبدالعزيز,حي الربيع,الرياض,13316.0,24.79339458,46.67513246
RADA4335,4335.0,الأحيدب,حي الندى,الرياض,13317.0,24.80088772,46.69301049
RAFA3514,3514.0,الميزان,حي الفلاح,الرياض,13314.0,24.79672241,46.71112613
RUQB6575,6575.0,طريق المطار الفرعي,حي قرطبة,الرياض,13244.0,24.79816726,46.72256151
RFHA2913,2913.0,عبدالله ابن سعود ابن عبدالعزيز الفرعي,حي الحمراء,الرياض,13217.0,24.78705503,46.75764205
RFYA3594,3594.0,الامام عبدالله بن سعود بن عبدالعزيز الفرعى,حي اليرموك,الرياض,13243.0,24.79479299,46.77361413
RFKE3313,3313.0,طريق الملك عبدالله بن عبدالعزيز,حي الخليج,الرياض,13224.0,24.79011436,46.80839894
RSRA3612,3612.0,الحارث ابن عبدالله الاوسي,حي الندوة,الرياض,14813.0,24.78806466,46.87746708
RDYA8575,8575.0,الوصيل 1,,العمارية,13726.0,24.80570520,46.42865983
RASA7504,7504.0,الملك عبدالعزيز ابن عبدالرحمن سعود الفرعي,حي الصحافة,الرياض,13321.0,24.80704409,46.64890094
RADA7349,7349.0,أركان,حي الندى,الرياض,13317.0,24.80600947,46.69297740
RUQE3856,3856.0,الدمام الفرعي,حي قرطبة,الرياض,13245.0,24.80500948,46.75012131
RFYC2931,2931.0,الدمام الفرعي,حي اليرموك,الرياض,13243.0,24.81089778,46.76735571
RFYA3704,3704.0,عبدالله بن سعود بن عبدالعزيز الفرعى,حي اليرموك,الرياض,13251.0,24.80286050,46.79262608
RFYA3704,3704.0,عبدالله بن سعود بن عبدالعزيز الفرعى,حي اليرموك,الرياض,13251.0,24.80286050,46.79262608
RSRA7195,7195.0,خريص,حي الندوة,الرياض,14813.0,24.79210149,46.86265119
RANA6801,6801.0,ابي بكر الصديق الفرعي,حي النرجس,الرياض,13323.0,24.81676858,46.66722953
RANC6960,6960.0,عثمان بن عفان الفرعي,حي النرجس,الرياض,13323.0,24.81869433,46.68662439
RUQA3322,3322.0,ممر77,حي قرطبة,الرياض,13247.0,24.81500784,46.72702027
RUMF3390,3390.0,الدمام الفرعي,حي المونسية,الرياض,13253.0,24.81842341,46.78136471
RRQE3680,3680.0,عبدالملك بن مسرة,حي القيروان,الرياض,13531.0,24.82325841,46.60426343
RAYB4274,4274.0,انس بن مالك,حي الياسمين,الرياض,13325.0,24.81681230,46.63649096
RUMD2762,2762.0,طريق الامير محمد بن سلمان بن عبدالعزيز,حي المونسية,الرياض,13249.0,24.82490466,46.74995305
RUMD3542,3542.0,البلقاء,حي المونسية,الرياض,13253.0,24.82763351,46.78247205
RFYB2213,2213.0,الدمام الفرعي,حي اليرموك,الرياض,13251.0,24.81545226,46.77809011
RURE6673,6673.0,النجاح,حي الرمال,الرياض,13254.0,24.82892104,46.79133224
RFJA7343,7343.0, جابر الاحمد الصباح,حي القادسية,الرياض,13252.0,24.81844093,46.80296986
RTJC7220,7220.0,أبي سالم التعايشي,حي الجنادرية,الرياض,13612.0,24.81616624,46.87843543
RSNA8085,8085.0,خريص,حي النظيم,الرياض,14814.0,24.81927215,46.88256447
RRDB7233,7233.0,الملك فهد,حي العارض,الرياض,13331.0,24.83768313,46.60914517
RAYE3219,3219.0,انس بن مالك,حي الياسمين,الرياض,13322.0,24.82357780,46.65565499
RUKA7170,7170.0,المطار,مطار الملك خالد,الرياض,13412.0,24.84102729,46.72135011
RUKA8391,8391.0,المطار,حي سدرة,الرياض,13413.0,24.84698035,46.73395442
RUQA3698,3698.0,الثمامه,حي قرطبة,الرياض,13413.0,24.83477353,46.73552961
RUMF2887,2887.0,طريق الثمامة,حي المونسية,الرياض,13249.0,24.84189950,46.75170984
RRQC3524,3524.0,محمد التمار,حي القيروان,الرياض,13531.0,24.83030620,46.60280889
RUKA7170,7170.0,المطار,مطار الملك خالد,الرياض,13412.0,24.84102729,46.72135011
RUKA7170,7170.0,المطار,مطار الملك خالد,الرياض,13412.0,24.84102729,46.72135011
RUKB7265,7265.0,المطار,مطار الملك خالد,الرياض,13412.0,24.84183290,46.72554966
RURA3004,,,,,,Error,Error
RURD8150,8150.0,علي البجادي,حي الرمال,الرياض,13263.0,24.84881938,46.82378271
RTJA3691,3691.0,السنبل,حي الجنادرية,الرياض,13615.0,24.84600368,46.87658240
RRDC7025,7025.0,الملك فهد,حي العارض,الرياض,13334.0,24.85133864,46.60284334
RUKB3446,3446.0,المطار,مطار الملك خالد,الرياض,13415.0,24.85384524,46.71290741
RUKB3662,3662.0,المطار,مطار الملك خالد,الرياض,13415.0,24.85164806,46.71500742
RUKB3662,3662.0,المطار,مطار الملك خالد,الرياض,13415.0,24.85164806,46.71500742
RUKA7338,7338.0,المطار,مطار الملك خالد,الرياض,13415.0,24.85702523,46.71873280
RUKA3612,3612.0,الثمامه,مطار الملك خالد,الرياض,13422.0,24.85590625,46.76612779
RUKA3612,3612.0,الثمامه,مطار الملك خالد,الرياض,13422.0,24.85590625,46.76612779
RRNA7010,7010.0,الملك فهد,حي القيروان,الرياض,13541.0,24.86315857,46.59283190
RRDB7831,7831.0,الملك عبدالعزيز ابن عبدالرحمن سعود الفرعي,حي العارض,الرياض,13335.0,24.86686838,46.61997263
RAJA7915,7915.0,,حي النرجس,الرياض,13333.0,24.85872943,46.64671832
RURB7522,7522.0,الجنادرية,حي الرمال,الرياض,13268.0,24.87593952,46.84546418
RRRA3681,3681.0,ريحانه بنت زيد,حي العارض,الرياض,13337.0,24.88139652,46.60421275
RUKA6567,6567.0,,مطار الملك خالد,الرياض,13442.0,24.89000719,46.69337249
RUKB3131,3131.0,,مطار الملك خالد,الرياض,13442.0,24.91365774,46.68932019
RJUA4646,4646.0,عبدالعزيز ال سعود,حي العين,العيينة,13959.0,24.90721658,46.38509385
RUKA7529,7529.0,المطار,مطار الملك خالد,الرياض,13451.0,24.92345360,46.72150445
RUKA5134,5134.0,,مطار الملك خالد,الرياض,13446.0,24.92850253,46.71364081
RUKB7447,7447.0,طريق المطار,مطار الملك خالد,الرياض,13455.0,24.94234150,46.71190097
RUKB7447,7447.0,طريق المطار,مطار الملك خالد,الرياض,13455.0,24.94234150,46.71190097
RUKB7447,7447.0,طريق المطار,مطار الملك خالد,الرياض,13455.0,24.94234150,46.71190097
RUKB7273,7273.0,المطار,مطار الملك خالد,الرياض,13458.0,24.96109452,46.70237286
RUKA6983,6983.0,المطار,مطار الملك خالد,الرياض,13458.0,24.95841288,46.70401450
RUKA6687,6687.0,المطار,مطار الملك خالد,الرياض,13458.0,24.95576501,46.70571903
RUKB7273,7273.0,المطار,مطار الملك خالد,الرياض,13458.0,24.96109452,46.70237286
RUKA2507,2507.0,,مطار الملك خالد,الرياض,13456.0,24.97360183,46.73170988
RUKA7245,7245.0,,مطار الملك خالد,الرياض,13471.0,24.97641872,46.68929003
RULA9786,9786.0,طريق الجنادرية,حي الرمال,الرياض,13479.0,25.07470281,46.71280368
OMDB7536,7536.0,سلمان بن عبدالعزيز,حي نواره,المزاحمية,19655.0,24.46243038,46.30002470
OMDD2364,2364.0,الملك سعود بن عبدالعزيز,حي الحزيمية,المزاحمية,19656.0,24.47762995,46.28711998
RKHA8268,8268.0,ديراب الفرعي,حي الحزم,الرياض,14966.0,24.53048560,46.65222565
RKWB3464,3464.0,نجم الدين الايوبي,حي طويق,الرياض,14927.0,24.55306380,46.56846486
RKHA3776,3776.0,المشتل,حي الحزم,الرياض,14964.0,24.54658156,46.65095614
RLDB8249,8249.0,ابن تيمية,حي بدر,الرياض,14724.0,24.54890042,46.69725518
RNSB7606,7606.0,عبدالله بن سويدة,المدينة الصناعية الثانية,الرياض,14334.0,24.54291162,46.90047803
RKAB4419,4419.0,الدائري الغربي الفرعي,حي العوالي,الرياض,14924.0,24.55848826,46.63752826
RLFA2073,2073.0,ظفار,حي الشفا,الرياض,14713.0,24.56230906,46.68244982
RMDA7349,7349.0,الحائر الفرعي,حي الدار البيضاء,الرياض,14519.0,24.55506660,46.76219438
RNSB8833,8833.0,محمد أبي نقطة,المدينة الصناعية الثانية,الرياض,14334.0,24.55413449,46.88904968
RKWF3008,3008.0,سليمان بن عبدالملك بن مروان,حي طويق,الرياض,14928.0,24.56783738,46.54444522
RMDD7233,7233.0,العزيزية الفرعي,حي الدار البيضاء,الرياض,14517.0,24.56673207,46.79011655
RKTB2448,2448.0,بلال بن رباح,حي طويق,الرياض,14921.0,24.57784096,46.58028697
RISA2930,2930.0,الدائري الغربي الفرعي,حي السويدي الغربي,الرياض,12992.0,24.57151512,46.61409557
RNDA6358,6358.0,السمح بن مالك,حي الدفاع,الرياض,14315.0,24.57687800,46.82849730
RBDA5393,5393.0,التفاح,حي الدريهمية,الرياض,12797.0,24.58563077,46.69148595
RBBC2329,2329.0,المدينه المنوره,حي ظهرة البديعة,الرياض,12982.0,24.59020976,46.62753237
RBBC2903,2903.0,المدينه المنوره,حي ظهرة البديعة,الرياض,12982.0,24.59368842,46.63323620
RBBD7025,7025.0,عائشة بنت ابي بكر,حي ظهرة البديعة,الرياض,12784.0,24.59070091,46.65144383
RBSA2784,2784.0,الأفلاج,حي السويدي,الرياض,12791.0,24.59609439,46.69781784
RCMA2874,2874.0,الدائري الجنوبي الفرعي,حي المنصورة,الرياض,12693.0,24.59989576,46.74601125
RMAC6872,6872.0,الشباب,حي العزيزية,الرياض,14512.0,24.58885574,46.75967661
RBSB3988,3988.0,السويدي العام,حي سلطانة,الرياض,12777.0,24.59876115,46.68948394
RCMA7835,7835.0,البطحاء,حي المنصورة,الرياض,12684.0,24.60435038,46.73279043
RDLD3575,3575.0,نجد,حي ظهرة لبن,الرياض,13781.0,24.62828453,46.55962516
RILA2234,2234.0,الأمير أحمد بن عبدالعزيز,حي لبن,الرياض,12933.0,24.63654023,46.58936901
RBNA6117,6117.0,الأمير سطام بن عبدالعزيز,حي الفاخرية,الرياض,12737.0,24.63406514,46.67551580
RDMD4228,4228.0,السيل الكبير,حي المهدية,الرياض,13765.0,24.64627596,46.49685248
RDLC4826,4826.0,الطائف,حي ظهرة لبن,الرياض,13753.0,24.64225322,46.54375397
RIHA2461,2461.0,طريق مكة المكرمة,حي الهدا,الرياض,12913.0,24.66604125,46.62125231
RBMB6848,6848.0,الجوهرى,حي المعذر,الرياض,12714.0,24.66433804,46.67647528
RCRA7385,7385.0,الملك فهد الفرعي,حي المربع,الرياض,12612.0,24.66282977,46.70097306
REMB3655,3655.0,معهد الإدارة,حي الملز,الرياض,12629.0,24.66613477,46.72434639
REMA7456,7456.0,صلاح الدين الايوبي,حي الملز,الرياض,12629.0,24.66628352,46.73078642
RGUA6552,6552.0,ام الحمام,حي ام الحمام الغربي,الرياض,12322.0,24.67950027,46.65444077
RBMA2613,2613.0,مكة المكرمة,حي المعذر,الرياض,12713.0,24.67145908,46.67497313
RYSA7320,7320.0,عمرو بن أمية الضمري,حي السفارات,الرياض,12512.0,24.67950420,46.62315105
RHOA3473,3473.0,الأمير سلطان بن عبدالعزيز,حي العليا,الرياض,12311.0,24.68523083,46.67783403
RCTA8858,8858.0,طريق صلاح الدين الايوبي,حي الضباط,الرياض,12623.0,24.69036885,46.72309153
RERA7454,7454.0,الدائري الشرقي الفرعي,حي الربوة,الرياض,12839.0,24.68571832,46.77513864
RQYA4225,4225.0,أبي عبيدة عامر بن الجراح,حي السلي,الرياض,14267.0,24.68744848,46.84902995
RYIB4995,4995.0,الصحراء الكبرى,عرقة,الرياض,12583.0,24.69400775,46.60607949
RGMB6526,6526.0,التخصصي,حي المعذر الشمالي,الرياض,12332.0,24.69253664,46.66937736
RHOA7277,7277.0,الملك فهد الفرعي,حي العليا,الرياض,12212.0,24.68979180,46.68502470
RHAA3176,3176.0,مكة المكرمة الفرعي,حي الملك عبدالعزيز,الرياض,12411.0,24.69596075,46.72836291
RHAB4016,4016.0,مكة المكرمة الفرعي,حي الملك عبدالعزيز,الرياض,12411.0,24.69891733,46.73629580
RERA6885,6885.0,طريق النهضة,حي الربوة,الرياض,12821.0,24.69628470,46.75145705
RQNA4134,4134.0,طريق الامير سعد بن عبدالرحمن الاول,حي النسيم الغربي,الرياض,14235.0,24.70612741,46.83601586
RERA7954,7954.0,الدائري الشرقي الفرعي,حي الربوة,الرياض,12822.0,24.70579833,46.76695467
RQRA4750,4750.0, احمد ابن حنبل,حي الريان,الرياض,14212.0,24.70933893,46.78889317
RHOB2239,2239.0,طريق العروبة,حي العليا,الرياض,12214.0,24.71142483,46.67439068
RHOB2239,2239.0,طريق العروبة,حي العليا,الرياض,12214.0,24.71142483,46.67439068
RHSB3877,3877.0,الأمير ممدوح بن عبدالعزيز,حي السليمانية,الرياض,12242.0,24.71046011,46.69371326
RHOA2779,2779.0,النجوم,حي العليا,الرياض,12244.0,24.70516840,46.68278018
RHOA2794,2794.0,موسى بن نصير,حي العليا,الرياض,12244.0,24.70479714,46.68296473
RGHB4034,4034.0,الملك عبدالله ابن عبدالعزيز سعود الفرعي,حي المحمدية,الرياض,12362.0,24.72404038,46.65356099
RGRA8112,8112.0,الملك فهد الفرعي,حي الرحمانية,الرياض,12343.0,24.72366758,46.66469439
RHWA2863,2863.0,الملك عبدالله ابن عبدالعزيز سعود الفرعي,حي الورود,الرياض,12253.0,24.73216008,46.67582249
RFRA4988,4988.0,خريص الفرعي,حي الروضة,الرياض,13211.0,24.72980707,46.78487164
RDAB5118,5118.0,الملك عبدالعزيز,حي العاصمة,الدرعية,13713.0,24.75143674,46.57415704
RGNA5045,5045.0,الأمير تركي بن عبدالعزيز الأول,حي النخيل,الرياض,12391.0,24.74488667,46.62052924
RHFA3005,3005.0,سعود بن عبدالعزيز بن محمد الفرعي,حي الملك فهد,الرياض,12262.0,24.74431205,46.65692071
RHFA7544,7544.0,الملك عبدالعزيز ابن عبدالرحمن سعود,حي الملك فهد,الرياض,12272.0,24.74289356,46.68004958
RFSA7749,7749.0,خالد بن الوليد,حي الاندلس,الرياض,13212.0,24.74616645,46.77569485
RQND2527,2527.0,خريص الفرعي,حي النسيم الغربي,الرياض,14231.0,24.74309091,46.80905192
RHRA2540,2540.0,الامير مقرن بن عبدالعزيز,حي المغرزات,الرياض,12483.0,24.75995330,46.71781085
RFNC7085,7085.0,سلمان الفارسي,حي النهضة,الرياض,13222.0,24.76033882,46.81285611
RQNA2135,2135.0,خريص الفرعي,حي النسيم الشرقي,الرياض,14241.0,24.75060563,46.82224939
RSRA2520,2520.0,علي العريني,حي الرماية,الرياض,14611.0,24.75107190,46.85279687
RRAA6921,6921.0,ابن مرزقان,حي العقيق,الرياض,13511.0,24.76183019,46.62588168
RHYA6745,6745.0,طريق الملك عبدالعزيز,حي المصيف,الرياض,12465.0,24.76010531,46.67383803
RHTA3214,3214.0,سعود بن عبدالعزيز بن محمد الفرعي,حي التعاون,الرياض,12475.0,24.76299462,46.69817628
RFHA4558,4558.0,الملك عبدالله ابن عبدالعزيز سعود الفرعي,حي الحمراء,الرياض,13216.0,24.76711212,46.75577552
RFFA7390,7390.0,عثمان بن الخصيب,حي الملك فيصل,الرياض,13215.0,24.75945892,46.77775254
RFNA3119,3119.0,الأمير بندر بن عبدالعزيز,حي النهضة,الرياض,13221.0,24.76333072,46.80143294
RHRA7735,7735.0,طريق عثمان بن عفان,حي المغرزات,الرياض,12483.0,24.76776646,46.71539159
RFFA9026,9026.0,الشيخ حسن بن حسين بن علي,حي الملك فيصل,الرياض,13215.0,24.77415702,46.77638962
RFBA4291,4291.0,الصعدة,حي اشبيلية,الرياض,13225.0,24.77989039,46.78861070
RRAC7886,7886.0,طريق الملك فهد الفرعي,حي العقيق,الرياض,13515.0,24.78670281,46.63364029
RALA7633,7633.0,الملك عبدالعزيز ابن عبدالرحمن سعود الفرعي,حي النفل,الرياض,13312.0,24.78468738,46.66161241
RHTB7860,7860.0,طريق عثمان بن عفان الفرعي,حي التعاون,الرياض,12478.0,24.77760631,46.70752208
RFDA6623,6623.0,,حي الشهداء,الرياض,13241.0,24.78180077,46.73097299
RFHA3713,3713.0, عبدالله ابن سعود ابن عبدالعزيز,حي الحمراء,الرياض,13217.0,24.79025387,46.76562146
RFMA7610,7610.0,الكواكب,حي المعيزلة,الرياض,13231.0,24.77954646,46.83150386
RFMA7610,7610.0,الكواكب,حي المعيزلة,الرياض,13231.0,24.77954646,46.83150386
RASA7369,7369.0,طريق الملك فهد الفرعي,حي الصحافة,الرياض,13315.0,24.78983866,46.63335442
RAFA3535,3535.0,الميزان,حي الفلاح,الرياض,13314.0,24.79586006,46.71139880
RSRA7195,7195.0,خريص,حي الندوة,الرياض,14813.0,24.79210149,46.86265119
RARC3769,3769.0,ابي بكر الصديق الفرعي,حي الربيع,الرياض,13316.0,24.80856284,46.66916715
RADA7349,7349.0,أركان,حي الندى,الرياض,13317.0,24.80600947,46.69297740
RFDA3747,3747.0,الدمام الفرعي,حي الشهداء,الرياض,13241.0,24.79919132,46.73968356
RUQE3856,3856.0,الدمام الفرعي,حي قرطبة,الرياض,13245.0,24.80500948,46.75012131
RFYB4352,4352.0,عبدالله بن سعود بن عبدالعزيز الفرعى,حي اليرموك,الرياض,13251.0,24.80557640,46.79902173
RFMB7256,7256.0,الجنادرية الفرعي,حي المعيزلة,الرياض,13234.0,24.79866077,46.85655354
RRMA4701,4701.0,الملك سلمان ابن عبدالعزيز سعود الفرعى,حي الملقا,الرياض,13525.0,24.81654122,46.59155954
RUQA6113,6113.0,سعيد بن زيد,حي قرطبة,الرياض,13248.0,24.81759872,46.73210046
RASA3865,3865.0,انس بن مالك لفرعي,حي الصحافة,الرياض,13321.0,24.81740412,46.64100798
RAYE3219,3219.0,انس بن مالك,حي الياسمين,الرياض,13322.0,24.82357780,46.65565499
RFYB2153,2153.0,الدمام الفرعي,حي اليرموك,الرياض,13251.0,24.81518632,46.77751606
RFJA7821,7821.0, جابر الاحمد الصباح,حي القادسية,الرياض,13252.0,24.82291950,46.79953620
RRQA6309,6309.0,الأمير محمد بن سعد بن عبدالعزيز,حي القيروان,الرياض,13531.0,24.82177420,46.59526194
RUQB7171,7171.0,سعيد بن زيد,حي قرطبة,الرياض,13248.0,24.82720938,46.72817444
RUQB7171,7171.0,سعيد بن زيد,حي قرطبة,الرياض,13248.0,24.82720938,46.72817444
RURB2744,2744.0,الدمام الفرعي,حي الرمال,الرياض,13264.0,24.83579272,46.83336979
RRDD6479,6479.0,طريق الملك فهد,حي العارض,الرياض,13334.0,24.84691326,46.60445306
RUKA8391,8391.0,المطار,حي سدرة,الرياض,13413.0,24.84698035,46.73395442
RURA3004,3004.0,طريق الامير محمد بن سلمان بن عبدالعزيز,حي الرمال,الرياض,13256.0,24.84052201,46.78704078
RAJB7759,7759.0,ابي بكر الصديق,حي النرجس,الرياض,13333.0,24.85745832,46.64661759
RAJB7759,7759.0,ابي بكر الصديق,حي النرجس,الرياض,13333.0,24.85745832,46.64661759
RRRD6699,6699.0,الملك عبدالعزيز ابن عبدالرحمن سعود الفرعي,حي العارض,الرياض,13338.0,24.87442788,46.61614146
RUKB2267,2267.0,,مطار الملك خالد,الرياض,13418.0,24.88908613,46.69701442
RUKB7273,7273.0,المطار,مطار الملك خالد,الرياض,13458.0,24.96109452,46.70237286
RNHA3708,3708.0,,حي هيت,الرياض,14371.0,24.44913135,46.99497874
OMDD2364,2364.0,الملك سعود بن عبدالعزيز,حي الحزيمية,المزاحمية,19656.0,24.47762995,46.28711998
RKDA6410,6410.0,الحريرة,حي ديراب,الرياض,14969.0,24.49465838,46.62727875
RKHA6496,6496.0,ديراب,حي الحزم,الرياض,14964.0,24.53756130,46.65803905
RLBB4001,4001.0,مسلم الفرعى,حي بدر,الرياض,14725.0,24.53267024,46.69711177
RNSB8709,8709.0,محمد أبي نقطة,المدينة الصناعية الثانية,الرياض,14334.0,24.55301567,46.88855106
RKQC3865,3865.0,طريق جدة,حي طويق,الرياض,13793.0,24.55435149,46.49055028
RKQA2796,2796.0,نجم الدين الايوبي,حي طويق,الرياض,14929.0,24.55535211,46.51476943
RKWA3092,3092.0,نجم الدين الايوبي,حي طويق,الرياض,14928.0,24.55488500,46.54495714
RKWA2044,2044.0,نجم الدين الايوبي,حي طويق,الرياض,14927.0,24.55428067,46.55447533
RKAB4419,4419.0,الدائري الغربي الفرعي,حي العوالي,الرياض,14924.0,24.55848826,46.63752826
RLDB7690,7690.0,مرة بن عائذ,حي بدر,الرياض,14716.0,24.55825209,46.70524775
RKWA7526,7526.0,الذهبي,حي طويق,الرياض,14928.0,24.56793279,46.54514116
RISA3360,3360.0,الدائري الغربي الفرعي,حي السويدي الغربي,الرياض,12992.0,24.56971520,46.61829679
RLFA2961,2961.0,ديراب الفرعي,حي الشفا,الرياض,14713.0,24.57030363,46.69132953
RMAA4514,4514.0,عرفات الفرعي,حي العزيزية,الرياض,14515.0,24.56845505,46.77118556
RKTA3037,3037.0,بلال بن رباح,حي طويق,الرياض,14921.0,24.57816777,46.58609616
RMAA8692,8692.0,العزيزيه,حي العزيزية,الرياض,14514.0,24.58555439,46.77857188
RIUE7334,7334.0,حمزة بن عبدالمطلب,حي العريجاء الغربي,الرياض,12976.0,24.58860604,46.62364682
RNDA6542,6542.0,السمح بن مالك,حي الدفاع,الرياض,14315.0,24.57852908,46.82973891
RIUA3859,3859.0,خديجة بنت خويلد,حي العريجاء الغربي,الرياض,14921.0,24.59030459,46.59436879
RBBA7135,7135.0,ربيعة بن خويلد,حي ظهرة البديعة,الرياض,12972.0,24.59871518,46.64004245
RBSA5790,5790.0,السويدي العام,حي سلطانة,الرياض,12785.0,24.59601295,46.68115727
RBSB2711,2711.0,السويدي العام,حي السويدي,الرياض,12791.0,24.60047488,46.69782428
RCMA7835,7835.0,البطحاء,حي المنصورة,الرياض,12684.0,24.60435038,46.73279043
RDLA5058,5058.0,الطائف,حي ظهرة لبن,الرياض,13761.0,24.61956345,46.50771621
RDLB4087,4087.0,نجد,حي ظهرة لبن,الرياض,13781.0,24.63141511,46.56468244
RCMA3003,3003.0,طريق الخرج الفرعي,حي المنصورة,الرياض,12692.0,24.62127828,46.74756450
RCMA3003,3003.0,طريق الخرج الفرعي,حي المنصورة,الرياض,12692.0,24.62127828,46.74756450
RBBA7213,7213.0,دريد بن الصمة,حي البديعة,الرياض,12747.0,24.62409836,46.68691453
RDMB4496,4496.0,السيل الكبير,حي المهدية,الرياض,13765.0,24.64794562,46.49952093
RDLB4476,4476.0,الطائف,حي ظهرة لبن,الرياض,13753.0,24.64022551,46.54028165
RBMB6848,6848.0,الجوهرى,حي المعذر,الرياض,12714.0,24.66433804,46.67647528
RBMA4539,4539.0,مكة المكرمة الفرعي,حي المعذر,الرياض,12721.0,24.67416234,46.66829226
RGUA7026,7026.0,ام الحمام,حي ام الحمام الغربي,الرياض,12324.0,24.68378751,46.65240051
RCTA6650,6650.0,,حي الضباط,الرياض,12627.0,24.67040623,46.72766443
RQFA4852,4852.0,طريق ابو عبيدة عامر بن الجراح,حي الفيحاء,الرياض,14254.0,24.67664392,46.82409005
RYIB4995,4995.0,الصحراء الكبرى,عرقة,الرياض,12583.0,24.69400775,46.60607949
RERB6891,6891.0,فاطمة الزهراء,حي الربوة,الرياض,12815.0,24.68685221,46.73386244
RERA7454,7454.0,الدائري الشرقي الفرعي,حي الربوة,الرياض,12839.0,24.68571832,46.77513864
RQWB4136,4136.0,الامير سعد بن عبدالرحمن الفرعي,حي الروابي,الرياض,14216.0,24.68597318,46.79451443
RGMB6526,6526.0,التخصصي,حي المعذر الشمالي,الرياض,12332.0,24.69253664,46.66937736
RHOB7517,7517.0,التخصصي,حي العليا,الرياض,12313.0,24.68852770,46.67410692
RHSA2481,2481.0,الامير سلطان ابن عبدالعزيز,حي السليمانية,الرياض,12232.0,24.69677688,46.70375363
RERE2957,2957.0,عمر بن عبدالعزيز الفرعي,حي الربوة,الرياض,12834.0,24.69070897,46.76396858
RQAA5475,5475.0,قرن المنيفة,حي السعادة,الرياض,14258.0,24.68951763,46.85104363
RQNB3860,3860.0,طريق الامير سعد بن عبدالرحمن الاول,حي النسيم الغربي,الرياض,14235.0,24.70446630,46.83330490
RGDA3023,3023.0,الملك عبدالله ابن عبدالعزيز سعود الفرعي,حي الرائد,الرياض,12355.0,24.71356286,46.63330141
RHOB2239,2239.0,طريق العروبة,حي العليا,الرياض,12214.0,24.71142483,46.67439068
RHSB4249,4249.0,الأمير ممدوح بن عبدالعزيز,حي السليمانية,الرياض,12243.0,24.71190748,46.69740288
RQMA6087,6087.0, الشافعي,حي المنار,الرياض,14222.0,24.71322821,46.79467188
RYKA5297,5297.0,الشهداء 13,حي الخزامى,الرياض,12571.0,24.72356066,46.60125102
RHWA6374,6374.0,المهندس مساعد العنقري,حي الورود,الرياض,12251.0,24.71679494,46.68140858
RFRB7610,7610.0,المقريزي,حي الروضة,الرياض,13211.0,24.72878987,46.78292357
RQNC7707,7707.0,حسان بن ثابت,حي النسيم الشرقي,الرياض,14243.0,24.72870262,46.83715264
RHWA2975,2975.0,الامير احمد بن عبدالعزيز,حي الورود,الرياض,12253.0,24.73253601,46.67719664
RQNC7369,7369.0,عبدالله بن بصيلة,حي النسيم الغربي,الرياض,14231.0,24.73768055,46.80716333
RRHA7920,7920.0,طريق الملك خالد,حي حطين,الرياض,13514.0,24.75358271,46.58418436
RRHC7894,7894.0,الأبناء,حي حطين,الرياض,13513.0,24.75320814,46.60990209
RHFA3135,3135.0,سعود بن عبدالعزيز بن محمد الفرعي,حي الملك فهد,الرياض,12262.0,24.74487466,46.65825070
RHFA7639,7639.0,وادي البطحاء,حي الملك فهد,الرياض,12262.0,24.74270582,46.65853343
RHFC7252,7252.0,طريق الملك عبدالعزيز الفرعي,حي الملك فهد,الرياض,12272.0,24.74017102,46.68207987
RHFA7544,7544.0,الملك عبدالعزيز ابن عبدالرحمن سعود,حي الملك فهد,الرياض,12272.0,24.74289356,46.68004958
RHMB2742,2742.0,إسماعيل البيهقي,حي المرسلات,الرياض,12461.0,24.74095320,46.68386326
RQNA2471,2471.0,خريص الفرعي,حي النسيم الغربي,الرياض,14231.0,24.74292835,46.80849558
RHNA2093,2093.0,سعود بن عبدالعزيز بن محمد الفرعي,حي النزهة,الرياض,12473.0,24.76094748,46.69554021
RHNA4608,4608.0,الملك عبدالله ابن عبدالعزيز سعود الفرعي,حي النزهة,الرياض,12472.0,24.75220786,46.72033806
RFQB7829,7829.0,الدائري الشرقي الفرعي,حي القدس,الرياض,13214.0,24.75670200,46.74117260
RFQA7476,7476.0,خالد بن الوليد,حي القدس,الرياض,13214.0,24.75317523,46.76935776
RFNB3664,3664.0,خريص الفرعي,حي النهضة,الرياض,13222.0,24.75425391,46.82404417
RRHA6603,,,,,,Error,Error
RRAB2886,2886.0,الدائرى الشمالى الفرعي,حي العقيق,الرياض,13511.0,24.75641472,46.62976826
RHYB6901,6901.0,الملك عبدالعزيز ابن عبدالرحمن سعود الفرعي,حي المصيف,الرياض,12467.0,24.76155534,46.67329353
RHRA7735,7735.0,طريق عثمان بن عفان,حي المغرزات,الرياض,12483.0,24.76776646,46.71539159
RRHD7466,7466.0,الامير محمد ابن سعد ابن عبدالعزيز,حي حطين,الرياض,13516.0,24.77528149,46.61777132
RALA6137,6137.0,الملك عبدالعزيز ابن عبدالرحمن سعود الفرعي,حي النفل,الرياض,13312.0,24.77169672,46.66899327
RHZA4556,4556.0,الطريق الدائري الشرقي الفرعي,حي الازدهار,الرياض,12486.0,24.77638270,46.72966509
RFDA6623,6623.0,,حي الشهداء,الرياض,13241.0,24.78180077,46.73097299
RFFA9026,9026.0,الشيخ حسن بن حسين بن علي,حي الملك فيصل,الرياض,13215.0,24.77415702,46.77638962
RFKB2073,2073.0,الملك عبدالله ابن عبدالعزيز سعود,حي الخليج,الرياض,13223.0,24.77626626,46.77721165
RASA7399,7399.0,طريق الملك فهد الفرعي,حي الصحافة,الرياض,13315.0,24.79010369,46.63327517
RAWA4038,4038.0,الدائرى الشمالى الفرعي,حي الوادي,الرياض,13313.0,24.78306965,46.69800864
RHZA7071,7071.0,طريق عثمان بن عفان الفرعي,حي الازدهار,الرياض,12487.0,24.77875927,46.70820899
RARA4517,4517.0,بني مسعود,حي الربيع,الرياض,13315.0,24.79406690,46.65564804
RFMB7256,7256.0,الجنادرية الفرعي,حي المعيزلة,الرياض,13234.0,24.79866077,46.85655354
RDYA8575,8575.0,الوصيل 1,,العمارية,13726.0,24.80570520,46.42865983
RARA7638,7638.0,ابي بكر الصديق الفرعي,حي الربيع,الرياض,13316.0,24.80080892,46.67396710
RADA7349,7349.0,أركان,حي الندى,الرياض,13317.0,24.80600947,46.69297740
RFGA2091,2091.0,الدمام الفرعي,حي غرناطة,الرياض,13242.0,24.79983412,46.74103954
RFGA2091,2091.0,الدمام الفرعي,حي غرناطة,الرياض,13242.0,24.79983412,46.74103954
RFYB3213,3213.0,الدمام الفرعي,حي اليرموك,الرياض,13243.0,24.81181201,46.77006310
RFBD3061,3061.0,عبدالله بن سعود بن عبدالعزيز الفرعى,حي اشبيلية,الرياض,13226.0,24.80278065,46.79483360
RASA3488,3488.0,الناصفة,حي الصحافة,الرياض,13321.0,24.81564763,46.63725127
RUQA2714,2714.0,طريق الامير سعود بن محمد بن مقرن الفرعي,حي قرطبة,الرياض,13248.0,24.81728479,46.73244582
RUMA3926,3926.0,الدمام الفرعي,حي المونسية,الرياض,13246.0,24.81302986,46.76845126
RFJB3512,3512.0,طريق الامام عبدالله بن سعود بن عبدالعزيز الفرعى,حي القادسية,الرياض,13252.0,24.80990572,46.80908941
RSNC7447,7447.0,خريص,حي النظيم,الرياض,14814.0,24.81369391,46.87862394
RRQB7952,7952.0,الأمير محمد بن سعد بن عبدالعزيز,حي القيروان,الرياض,13532.0,24.82661240,46.59187501
RAYE3219,3219.0,انس بن مالك,حي الياسمين,الرياض,13322.0,24.82357780,46.65565499
RANA4089,4089.0,انس بن مالك,حي النرجس,الرياض,13324.0,24.83482813,46.68248573
RUQB7171,7171.0,سعيد بن زيد,حي قرطبة,الرياض,13248.0,24.82720938,46.72817444
RURC4379,4379.0,عبدالرحمن بن الأرقم,حي الرمال,الرياض,13254.0,24.83420630,46.80896867
RTJA3046,3046.0,الشرق,حي الجنادرية,الرياض,13613.0,24.83302120,46.88341448
RTJA3046,3046.0,الشرق,حي الجنادرية,الرياض,13613.0,24.83302120,46.88341448
RURB6703,6703.0,علي البجادي,حي الرمال,الرياض,13264.0,24.84074249,46.82909755
RRDC7025,7025.0,الملك فهد,حي العارض,الرياض,13334.0,24.85133864,46.60284334
RANA2179,2179.0,الملك سلمان ابن عبدالعزيز سعود الفرعى,حي النرجس,الرياض,13328.0,24.85077245,46.67296328
RAJA3036,3036.0,سعود بن عبدالله جلوي,حي النرجس,الرياض,13336.0,24.86138821,46.64624673
RRRA5228,5228.0,ريحانه بنت زيد,حي العارض,الرياض,13341.0,24.88483409,46.60978486
RUKA2249,2249.0,,مطار الملك خالد,الرياض,13418.0,24.88912050,46.69682764
RTBA3448,3448.0,مالك بن الدخشم الخزرجي,حي البيان,الرياض,13619.0,24.88600083,46.85728617
RTNA8791,8791.0,طريق الدمام,حي الجنادرية,الرياض,13626.0,24.89620513,46.90763505
ODMB5201,5201.0,الخرج الجديد,,الخرج,16356.0,24.37472789,47.09976983
RKDA6554,6554.0,ديراب الفرعي,حي ديراب,الرياض,14969.0,24.49594369,46.62771260
RLKB7833,7833.0,ديراب الفرعي,حي عكاظ,الرياض,14723.0,24.52982656,46.65366990
RKHA8534,8534.0,ديراب الفرعي,حي الحزم,الرياض,14966.0,24.53282413,46.65371564
RLBD3579,3579.0,مسلم الفرعى,حي بدر,الرياض,14725.0,24.53534235,46.69301067
RMFA3285,3285.0,طريق الخرج الفرعي,حي المصفاة,الرياض,14525.0,24.54320918,46.87287549
RKAA3323,3323.0,نجم الدين الايوبي الفرعي,حي العوالي,الرياض,14942.0,24.55143063,46.60069746
RKWA5034,5034.0,نجم الدين الايوبي,حي طويق,الرياض,14936.0,24.55246698,46.56541260
RKAA3282,3282.0,نجم الدين الايوبي الفرعي,حي العوالي,الرياض,14924.0,24.55259921,46.62620100
RLSA2850,2850.0,عرفات الفرعي,حي المصانع,الرياض,14717.0,24.55999077,46.74834333
RKAD3163,3163.0,الدائري الغربي الفرعي,حي العوالي,الرياض,14924.0,24.56493066,46.62522444
RLFA6974,6974.0,ابن تيمية,حي الشفا,الرياض,14713.0,24.56000698,46.70505044
RMDC3511,3511.0,ابن حجر,حي الدار البيضاء,الرياض,14517.0,24.56688152,46.80015064
RBDA2996,2996.0,الدائري الجنوبي الفرعي,حي شبرا,الرياض,12799.0,24.57098754,46.66778879
RKNA2625,2625.0,الدائري الجنوبي الفرعي,حي نمار,الرياض,14962.0,24.57495798,46.67789242
RKTB2969,2969.0,بلال بن رباح,حي طويق,الرياض,14923.0,24.58032563,46.53928226
RBBD6664,6664.0,الشيخ عمر بن عبداللطيف بن عبدالرحمن,حي ظهرة البديعة,الرياض,12982.0,24.58652448,46.63943894
RBSC3910,3910.0,السويدي العام,حي السويدي,الرياض,12788.0,24.58441553,46.66240860
RMDB8448,8448.0,العزيزية الفرعي,حي الدار البيضاء,الرياض,14518.0,24.57119754,46.78647235
RMDD2357,2357.0,عجمان,حي الدار البيضاء,الرياض,14517.0,24.57138953,46.78877311
RMDB8448,8448.0,العزيزية الفرعي,حي الدار البيضاء,الرياض,14518.0,24.57119754,46.78647235
RCMC3892,3892.0,الدائري الجنوبي الفرعي,حي المنصورة,الرياض,12684.0,24.59536449,46.73783298
RBSD3565,3565.0,الملك فهد,حي السويدي,الرياض,12791.0,24.60389556,46.70562395
RCMA3138,3138.0,الدائري الجنوبي الفرعي,حي المنصورة,الرياض,12693.0,24.60147090,46.74865197
RMAA7643,7643.0,العزيزية الفرعي,حي العزيزية,الرياض,14511.0,24.60216351,46.77001829
REKA3460,3460.0,الخرج,حي الخالدية,الرياض,12875.0,24.62022082,46.75078484
RDLD7489,7489.0,نجران,حي ظهرة لبن,الرياض,13782.0,24.63105591,46.55310922
RDLB3243,3243.0,الطائف,حي ظهرة لبن,الرياض,13782.0,24.64836040,46.55656122
RDMB2807,2807.0,السيل الكبير,حي المهدية,الرياض,13756.0,24.65289792,46.50861910
RDLB4882,4882.0,الطائف,حي ظهرة لبن,الرياض,13751.0,24.65077748,46.55981009
RDLG4240,4240.0,الطائف,حي ظهرة لبن,الرياض,12555.0,24.65426516,46.57868134
RDLA4775,4775.0,الطائف,حي ظهرة لبن,الرياض,12561.0,24.65297646,46.59344753
RCRA7789,7789.0,شيبة بن عثمان,حي المربع,الرياض,12612.0,24.66634125,46.69886547
REMA7135,7135.0,الملك عبدالعزيز ابن عبدالرحمن سعود,حي الملز,الرياض,12629.0,24.66352556,46.71844079
RQFA6259,6259.0,السويلة,حي الفيحاء,الرياض,14254.0,24.67021771,46.80963839
RQYA8729,8729.0,وادي العميرة,حي السلي,الرياض,14263.0,24.67651912,46.82616760
RYIB3433,3433.0,الأمير مشعل بن عبد العزيز,عرقة,الرياض,12543.0,24.68516441,46.57615543
RCTA8520,8520.0,صلاح الدين الايوبي,حي الضباط,الرياض,12623.0,24.68719061,46.72383675
RQWA2940,2940.0,الامير سعد بن عبدالرحمن الفرعي,حي الروابي,الرياض,14215.0,24.68184264,46.78265121
RHOA7614,7614.0,الملك فهد الفرعي,حي العليا,الرياض,12313.0,24.68930125,46.68275767
RERA4444,4444.0,عمر بن عبدالعزيز الفرعي,حي الربوة,الرياض,12824.0,24.69383758,46.76913643
RHOA7305,7305.0,التخصصي,حي العليا,الرياض,12333.0,24.69943176,46.66860805
RHAA4308,4308.0,مكة المكرمة الفرعي,حي الملك عبدالعزيز,الرياض,12233.0,24.69366933,46.72182259
RQNC6810,6810.0,سعد بن ابي وقاص,حي النسيم الغربي,الرياض,14235.0,24.71029882,46.83184257
RFRA2371,2371.0,حفصة بنت عمر,حي الروضة,الرياض,13211.0,24.72325099,46.75909777
RFRB7610,7610.0,المقريزي,حي الروضة,الرياض,13211.0,24.72878987,46.78292357
RFRB2451,2451.0,عبدالرحمن الغافقي,حي الروضة,الرياض,13213.0,24.74249481,46.75334799
RQNB7825,7825.0,سعد بن ابي وقاص,حي النسيم الغربي,الرياض,14231.0,24.74180665,46.80928431
RHMA2895,2895.0,سعود بن عبدالعزيز بن محمد,حي المرسلات,الرياض,12464.0,24.75672323,46.68550080
RFNB7868,7868.0,سلمان الفارسي,حي النهضة,الرياض,13221.0,24.75649539,46.81468866
RHYB7394,7394.0,ابي بكر الصديق,حي المصيف,الرياض,12466.0,24.76591160,46.69176996
RHGA3703,3703.0,الدائرى الشمالى الفرعي,حي المروج,الرياض,12284.0,24.76879653,46.66743850
RFHA7994,7994.0,خالد بن الوليد,حي الحمراء,الرياض,13216.0,24.77770542,46.75105969
RFFA2507,2507.0,الملك عبدالله ابن عبدالعزيز سعود الفرعي,حي الملك فيصل,الرياض,13215.0,24.76924682,46.76429153
RFNA2031,2031.0,الامير بندر بن عبدالعزيز,حي النهضة,الرياض,13222.0,24.76712169,46.80779941
RRMD3124,3124.0,سعود ابن فيصل الفرعي,حي الملقا,الرياض,13521.0,24.78794199,46.61545746
RASA6665,6665.0,طريق الملك فهد الفرعي,حي الصحافة,الرياض,13315.0,24.78343683,46.63689228
RFKA2581,2581.0,طريق الملك عبدالله بن عبدالعزيز,حي الخليج,الرياض,13224.0,24.78583800,46.80134568
RSRA3960,3960.0,الحارث ابن عبدالله الاوسي,حي الندوة,الرياض,14813.0,24.78613224,46.88086476
RRMD3124,3124.0,سعود ابن فيصل الفرعي,حي الملقا,الرياض,13521.0,24.78794199,46.61545746
RFHA3379,3379.0,عبدالله ابن سعود ابن عبدالعزيز الفرعي,حي الحمراء,الرياض,13217.0,24.78901473,46.76221229
RSRA4685,4685.0,الميناء,حي الندوة,الرياض,14813.0,24.79682775,46.88816897
RAYA4038,4038.0,الثمامه,حي الياسمين,الرياض,13322.0,24.80812841,46.66344623
RADA4282,4282.0,الامير محمد ابن سلمان ابن عبدالعزيز,حي الندى,الرياض,13317.0,24.80065948,46.69247013
RFJA7551,7551.0, جابر الاحمد الصباح,حي القادسية,الرياض,13236.0,24.80087982,46.81577989
RTJA7699,7699.0,الجنادرية الفرعي,حي الجنادرية,الرياض,13611.0,24.80388065,46.85453814
RSRA8283,8283.0,خريص,حي الندوة,الرياض,14813.0,24.80266222,46.87042189
RADC3385,3385.0,الثمامه,حي الندى,الرياض,13317.0,24.81558429,46.68381160
RUQC7288,7288.0, حسن ابن حسين ابن علي,حي قرطبة,الرياض,13245.0,24.81157645,46.75550811
RFYB2347,2347.0,الدمام الفرعي,حي اليرموك,الرياض,13251.0,24.81574708,46.77943295
RFYB3627,3627.0,الدمام الفرعي,حي اليرموك,الرياض,13243.0,24.81379695,46.77421692
RAYB6371,6371.0,الملك عبدالعزيز,حي الياسمين,الرياض,13326.0,24.82234521,46.64264882
RUMA4306,4306.0,الدمام الفرعي,حي المونسية,الرياض,13253.0,24.82198276,46.78994226
RFJB3727,3727.0,الدمام الفرعي,حي القادسية,الرياض,13252.0,24.82896075,46.81107247
RFJB3675,3675.0,الدمام الفرعي,حي القادسية,الرياض,13252.0,24.82875517,46.81058205
RUQB2481,2481.0,الثمامه,حي قرطبة,الرياض,13248.0,24.83101459,46.73064784
RUMC8002,8002.0,النجاح,حي المونسية,الرياض,13253.0,24.83300314,46.78805732
RUKA8391,8391.0,المطار,حي سدرة,الرياض,13413.0,24.84698035,46.73395442
RUMC3518,3518.0,طريق الثمامة,حي المونسية,الرياض,13421.0,24.84228006,46.75035615
RAJA5452,5452.0,الملك سلمان ابن عبدالعزيز سعود الفرعى,حي النرجس,الرياض,13333.0,24.85336409,46.67611051
RURC7993,7993.0,علي البجادي,حي الرمال,الرياض,13265.0,24.85244331,46.82317602
RRRA7831,7831.0,الملك فهد,حي العارض,الرياض,13337.0,24.87577545,46.59001384
RTNA8791,8791.0,طريق الدمام,حي الجنادرية,الرياض,13626.0,24.89620513,46.90763505
RTNA2919,2919.0,طريق الدمام,حي الجنادرية,الرياض,13800.0,24.90975868,46.92821550
RBTA7237,7237.0,التخصصي,حي المؤتمرات,الرياض,12711.0,24.66771847,46.68209479
RHSA8146,8146.0,الملك محمد الخامس,حي السليمانية,الرياض,12223.0,24.69934870,46.70269889
RHSA3303,3303.0,العروبه,حي السليمانية,الرياض,12245.0,24.71884324,46.68804146
RRHA6711,6711.0,ابن أبي ربيع,حي حطين,الرياض,13512.0,24.75483639,46.61020031
RAYB3339,3339.0,انس بن مالك,حي الياسمين,الرياض,13322.0,24.82409687,46.65688767
RUKA7675,7675.0,,حي سدرة,الرياض,13413.0,24.84051147,46.73338114
RFJB7023,7023.0, جابر الاحمد الصباح,حي القادسية,الرياض,13252.0,24.81562848,46.80483420
RRDC7025,7025.0,الملك فهد,حي العارض,الرياض,13334.0,24.85133864,46.60284334
RKAB4419,4419.0,الدائري الغربي الفرعي,حي العوالي,الرياض,14924.0,24.55848826,46.63752826
RMAD7707,7707.0,الحائر الفرعي,حي العزيزية,الرياض,14515.0,24.57704742,46.74953446
RBSB2711,2711.0,السويدي العام,حي السويدي,الرياض,12791.0,24.60047488,46.69782428
RBBB6344,6344.0,عبدالملك السلمي,حي البديعة,الرياض,12748.0,24.61598084,46.68031475
RHOA2353,2353.0,الأمير محمد بن عبدالعزيز,حي العليا,الرياض,12222.0,24.69741872,46.68736663
RHAA3176,3176.0,مكة المكرمة الفرعي,حي الملك عبدالعزيز,الرياض,12411.0,24.69596075,46.72836291
RFYD2978,2978.0,الامام عبدالله بن سعود بن عبدالعزيز الفرعى,حي اليرموك,الرياض,13243.0,24.79327504,46.76747252
RFYA2623,2623.0,الدمام الفرعي,حي اليرموك,الرياض,13251.0,24.81711881,46.78225058
RSND3269,3269.0,الشرف,حي النظيم,الرياض,14814.0,24.82719839,46.88835266
RUQC7736,7736.0, حسن ابن حسين ابن علي,حي قرطبة,الرياض,13248.0,24.83200219,46.74496050
RUKA3612,3612.0,الثمامه,مطار الملك خالد,الرياض,13422.0,24.85590625,46.76612779
RTNA8791,8791.0,طريق الدمام,حي الجنادرية,الرياض,13626.0,24.89620513,46.90763505
RUKB7447,7447.0,طريق المطار,مطار الملك خالد,الرياض,13455.0,24.94234150,46.71190097
RUKB7273,7273.0,المطار,مطار الملك خالد,الرياض,13458.0,24.96109452,46.70237286
RUKB7273,7273.0,المطار,مطار الملك خالد,الرياض,13458.0,24.96109452,46.70237286
RLFB7020,7020.0,ابن تيمية,حي الشفا,الرياض,14721.0,24.54840448,46.69557184
RDLB3243,3243.0,الطائف,حي ظهرة لبن,الرياض,13782.0,24.64836040,46.55656122
RBMA8716,8716.0,الأمير تركي بن عبدالعزيز الأول,حي المعذر,الرياض,12721.0,24.67375708,46.66870703
RERC3367,3367.0,عمر بن عبدالعزيز الفرعي,حي الربوة,الرياض,12835.0,24.69227875,46.76792368
RGRA7478,7478.0,التخصصي,حي الرحمانية,الرياض,12344.0,24.71796123,46.65828105
RFRA7088,7088.0,الحسن بن علي,حي الروضة,الرياض,13211.0,24.72425681,46.77061868
RHGA3184,3184.0,سعود بن عبدالعزيز بن محمد الفرعي,حي المروج,الرياض,12281.0,24.74802829,46.66231924
RRHE2928,2928.0,الأمير تركي بن عبدالعزيز الأول,حي حطين,الرياض,13512.0,24.75295736,46.61222064
RHRA7735,7735.0,طريق عثمان بن عفان,حي المغرزات,الرياض,12483.0,24.76776646,46.71539159
RFGB2689,2689.0,الدمام الفرعي,حي غرناطة,الرياض,13242.0,24.80247239,46.74738037
RYIA4033,4033.0,الأمير مشعل بن عبد العزيز,عرقة,الرياض,12543.0,24.68678530,46.58212946
RFRA6527,6527,الدائري الشرقي الفرعي,حي الروضة,الرياض,13213,24.73190710,46.75361979
RRMA3798,3798, سعود ابن فيصل,حي الملقا,الرياض,13521,24.79072584,46.62227596
RASA2975,2975,انس بن مالك,حي الصحافة,الرياض,13321,24.81383230,46.63215424
RRQB6273,6273,الأمير محمد بن سعد بن عبدالعزيز,حي القيروان,الرياض,13531,24.82146514,46.59541864
RAJB7131,7131,ابي بكر الصديق,حي النرجس,الرياض,13333,24.85234138,46.64920674
RUMF3161,3161,طريق الثمامة,حي المونسية,الرياض,13249,24.84324174,46.75424658
RYSA6810,6810,عمرو بن اميه الضمري,حي السفارات,الرياض,12511,24.67489159,46.62512583
RHOB2239,2239,طريق العروبة,حي العليا,الرياض,12214,24.71142483,46.67439068
RDCA3220,3220,,,الدرعية,13711,24.73421562,46.57459143
RGHA3478,3478,زنجبار,حي المحمدية,الرياض,12362,24.73173064,46.64817950
RRAB2886,2886,الدائرى الشمالى الفرعي,حي العقيق,الرياض,13511,24.75641472,46.62976826
RTJC7220,7220,أبي سالم التعايشي,حي الجنادرية,الرياض,13612,24.81616624,46.87843543
RNHA2598,2598,طريق الخرج,حي هيت,الرياض,14372,24.44358485,47.00060712
RMFB4797,4797,الخرج الجديد,حي المصفاة,الرياض,14561,24.46041805,46.98055858
OMDA8518,8518,سلمان بن عبدالعزيز,حي نواره,المزاحمية,19655,24.47117465,46.30815424
RMFA5861,5861,طريق رياض الخرج,حي المصفاة,الرياض,14548,24.46989530,46.96973193
RKQA3431,3431,نجم الدين الايوبي,حي طويق,الرياض,14931,24.55469772,46.51062600
RKQB7470,7470,عمر بن جناوه,حي طويق,الرياض,14929,24.56796397,46.53011499
RCNB2948,2948,الدائري الجنوبي الفرعي,حي منفوحة,الرياض,12685,24.59026365,46.72854065
RMAD3798,3798,عرفات الفرعي,حي العزيزية,الرياض,14513,24.57886699,46.79247144
RMAB8287,8287,محمد رشيد رضا,حي العزيزية,الرياض,14514,24.58203503,46.76468830
RDLA2255,2255,الطائف,حي ظهرة لبن,الرياض,13787,24.61482024,46.50180484
RIUD3581,3581, ابي حنيفه,حي العريجاء الوسطى,الرياض,12766,24.61726900,46.64407458
RNCB2659,2659,الصفا,حي المناخ,الرياض,14316,24.61110611,46.82397935
REFB7412,7412,الدائري الشرقي الفرعي,حي الفيصلية,الرياض,12896,24.63868867,46.79853161
RDLC2783,2783,الطائف,حي ظهرة لبن,الرياض,12564,24.65330516,46.57378597
REMB3557,3557,الجامعة,حي الملز,الرياض,12642,24.66284899,46.73045363
RERA7954,7954,الدائري الشرقي الفرعي,حي الربوة,الرياض,12822,24.70579833,46.76695467
RGNA3244,3244,طريق الملك خالد,حي النخيل,الرياض,12395,24.72474736,46.60233206
RFRB7610,7610,المقريزي,حي الروضة,الرياض,13211,24.72878987,46.78292357
RFND3386,3386,خريص الفرعي,حي النهضة,الرياض,13221,24.74171608,46.80365495
RFHB7888,7888,خالد بن الوليد,حي الحمراء,الرياض,13216,24.77678649,46.75153556
RASB7209,7209,العليا,حي الصحافة,الرياض,13315,24.78832313,46.63783023
RFHB7427,7427,خالد بن الوليد الفرعي,حي الحمراء,الرياض,13217,24.78066189,46.75068954
RAYA6365,6365,الملك عبدالعزيز ابن عبدالرحمن سعود الفرعي,حي الياسمين,الرياض,13322,24.80597399,46.65087045
RFDA8374,8374,شهيد الدين ثم الوطن محمد طريسان الشاطر,حي الشهداء,الرياض,13241,24.79755142,46.73560179
RUQD3928,3928,الدمام الفرعي,حي قرطبة,الرياض,13245,24.80531362,46.75084078
RTJB8193,8193,الجنادرية الفرعي,حي الجنادرية,الرياض,13611,24.80808602,46.85185479
RADB3131,3131,الثمامه,حي الندى,الرياض,13317,24.81452448,46.68127621
RTJA8582,8582,طريق خريص,حي الجنادرية,الرياض,13612,24.82812283,46.88736507
RFJD2672,2672,وادي الغراره,حي القادسية,الرياض,13261,24.83063503,46.81861094
RURC6876,6876,علي البجادي,حي الرمال,الرياض,13263,24.83844839,46.82876419
RUMC3518,3518,طريق الثمامة,حي المونسية,الرياض,13421,24.84228006,46.75035615
RAJA5452,5452,الملك سلمان ابن عبدالعزيز سعود الفرعى,حي النرجس,الرياض,13333,24.85336409,46.67611051
RRRD6746,6746,محمد الزبيري,حي العارض,الرياض,13337,24.86520283,46.61005824
RURA2325,2325,الثمامه,حي الرمال,الرياض,13266,24.86515685,46.79802016
RRRA7831,7831,الملك فهد,حي العارض,الرياض,13337,24.87577545,46.59001384
RRRA3724,3724,الأمير خالد بن بندر بن عبدالعزيز,حي العارض,الرياض,13338,24.87253865,46.62743797
RTNA8791,8791,طريق الدمام,حي الجنادرية,الرياض,13626,24.89620513,46.90763505
RISA3764,3764,الدائري الغربي الفرعي,حي السويدي الغربي,الرياض,12993,24.56779423,46.62226730
RBSA6573,6573,عائشة بنت ابي بكر,حي السويدي,الرياض,12788,24.58655324,46.65451203
RDLE4348,4348,نجد,حي ظهرة لبن,الرياض,13782,24.63410662,46.56732073
RESB8236,8236,الدائري الشرقي الفرعي,حي الصفا,الرياض,12853,24.67401689,46.77854634
RYIA8120,8120,امارة عرقة,عرقة,الرياض,12543,24.68647320,46.58234456
RQRA6678,6678,عنيزة,حي الريان,الرياض,14213,24.70070862,46.77916040
RFQB3083,3083,الأمير سعود الكبير بن عبدالعزيز آل سعو,حي القدس,الرياض,13214,24.75543340,46.74958471
RHRA7153,7153,طريق عثمان بن عفان,حي المغرزات,الرياض,12483,24.76235232,46.71641313
RUQB6281,6281,سعيد بن زيد,حي قرطبة,الرياض,13245,24.80284171,46.73944223
RRMB4496,4496,انس بن مالك,حي الملقا,الرياض,13524,24.81018942,46.62069567
RFYC2931,2931,الدمام الفرعي,حي اليرموك,الرياض,13243,24.81089778,46.76735571
RRQB6273,6273,الأمير محمد بن سعد بن عبدالعزيز,حي القيروان,الرياض,13531,24.82146514,46.59541864
RTJC2422,2422,الشرق,حي الجنادرية,الرياض,13613,24.83684051,46.87730647
RUMF3161,3161,طريق الثمامة,حي المونسية,الرياض,13249,24.84324174,46.75424658
RAJB7393,7393,ابي بكر الصديق,حي النرجس,الرياض,13333,24.85447021,46.64812551